NORAD_CAT_ID,OBJECT_NAME,OBJECT_TYPE,EPOCH,MEAN_MOTION,ECCENTRICITY,INCLINATION,RA_OF_ASC_NODE,ARG_OF_PERICENTER,MEAN_ANOMALY,BSTAR,MEAN_MOTION_DOT,MEAN_MOTION_DDOT,TLE_LINE0,TLE_LINE1,TLE_LINE2,SEMIMAJOR_AXIS,PERIOD,APOGEE,PERIGEE,DECAYED
52271.0,STARLINK-3788,PAYLOAD,2023-09-26 20:27:54,15.08835224,0.0001344,53.2161,166.2014,88.6065,271.5081,-0.00011496,-2.117e-05,0.0,0 STARLINK-3788,1 52271U 22041L   23269.85271655 -.00002117  00000-0 -11496-3 0  9994,2 52271  53.2161 166.2014 0001344  88.6065 271.5081 15.08835224 79279,6917.895,95.438,540.69,538.83,0.0
52271.0,STARLINK-3788,PAYLOAD,2023-09-26 23:38:41,15.08834119,0.0001397,53.2163,165.606,100.0282,260.0868,-0.00012282,-2.242e-05,0.0,0 STARLINK-3788,1 52271U 22041L   23269.98519838 -.00002242  00000-0 -12282-3 0  9999,2 52271  53.2163 165.6060 0001397 100.0282 260.0868 15.08834119 80510,6917.898,95.438,540.73,538.797,0.0
52271.0,STARLINK-3788,PAYLOAD,2023-09-27 23:29:29,15.08833388,0.0001509,53.2167,161.1492,88.7917,271.3248,-0.00010166,-1.905e-05,0.0,0 STARLINK-3788,1 52271U 22041L   23270.97880920 -.00001905  00000-0 -10166-3 0  9997,2 52271  53.2167 161.1492 0001509  88.7917 271.3248 15.08833388 79440,6917.901,95.438,540.81,538.722,0.0
52271.0,STARLINK-3788,PAYLOAD,2023-09-28 16:58:43,15.0883719,0.0001501,53.2164,157.8715,90.3878,269.7286,0.00035936,5.435e-05,0.0,0 STARLINK-3788,1 52271U 22041L   23271.70745093  .00005435  00000-0  35936-3 0  9992,2 52271  53.2164 157.8715 0001501  90.3878 269.7286 15.08837190 80770,6917.889,95.438,540.792,538.716,0.0
52271.0,STARLINK-3788,PAYLOAD,2023-09-28 21:44:52,15.0884527,0.0001553,53.2169,156.9872,97.4727,262.6441,0.0004565,6.986e-05,0.0,0 STARLINK-3788,1 52271U 22041L   23271.90616866  .00006986  00000-0  45650-3 0  9995,2 52271  53.2169 156.9872 0001553  97.4727 262.6441 15.08845270 79587,6917.864,95.437,540.804,538.655,0.0
52271.0,STARLINK-3788,PAYLOAD,2023-09-29 23:11:02,15.08853131,0.0001348,53.2156,152.2322,81.6745,278.4399,0.00021023,3.061e-05,0.0,0 STARLINK-3788,1 52271U 22041L   23272.96600271  .00003061  00000-0  21023-3 0  9994,2 52271  53.2156 152.2322 0001348  81.6745 278.4399 15.08853131 80965,6917.84,95.437,540.638,538.773,0.0
52271.0,STARLINK-3788,PAYLOAD,2023-09-30 08:43:21,15.08844635,0.0001224,53.2145,150.4389,78.1077,282.0052,-1.0534e-05,-4.56e-06,0.0,0 STARLINK-3788,1 52271U 22041L   23273.36344188 -.00000456  00000-0 -10534-4 0  9994,2 52271  53.2145 150.4389 0001224  78.1077 282.0052 15.08844635 81022,6917.866,95.437,540.578,538.884,0.0
52271.0,STARLINK-3788,PAYLOAD,2023-09-30 23:01:50,15.08838201,0.000125,53.2145,147.7672,91.7766,268.3369,-0.00012815,-2.327e-05,0.0,0 STARLINK-3788,1 52271U 22041L   23273.95960650 -.00002327  00000-0 -12815-3 0  9999,2 52271  53.2145 147.7672 0001250  91.7766 268.3369 15.08838201 81111,6917.886,95.438,540.616,538.886,0.0
52271.0,STARLINK-3788,PAYLOAD,2023-10-01 08:34:08,15.08845102,0.0001305,53.2147,145.9822,92.2198,267.8944,8.3537e-05,1.042e-05,0.0,0 STARLINK-3788,1 52271U 22041L   23274.35704431  .00001042  00000-0  83537-4 0  9998,2 52271  53.2147 145.9822 0001305  92.2198 267.8944 15.08845102 79956,6917.865,95.437,540.633,538.827,0.0
52271.0,STARLINK-3788,PAYLOAD,2023-10-01 21:17:13,15.08851864,0.0001273,53.2141,143.6033,94.928,265.1857,0.00027063,4.023e-05,0.0,0 STARLINK-3788,1 52271U 22041L   23274.88696087  .00004023  00000-0  27063-3 0  9996,2 52271  53.2141 143.6033 0001273  94.9280 265.1857 15.08851864 80031,6917.844,95.437,540.59,538.828,0.0
52271.0,STARLINK-3788,PAYLOAD,2023-10-02 21:08:00,15.08840453,0.0001353,53.2135,139.1421,87.7006,272.4141,9.0147e-05,1.147e-05,0.0,0 STARLINK-3788,1 52271U 22041L   23275.88056542  .00001147  00000-0  90147-4 0  9991,2 52271  53.2135 139.1421 0001353  87.7006 272.4141 15.08840453 81401,6917.879,95.438,540.68,538.808,0.0
52271.0,STARLINK-3788,PAYLOAD,2023-10-03 08:15:42,15.08835952,0.0001466,53.2147,137.0591,90.4279,269.6881,0.00030423,4.557e-05,0.0,0 STARLINK-3788,1 52271U 22041L   23276.34424703  .00004557  00000-0  30423-3 0  9999,2 52271  53.2147 137.0591 0001466  90.4279 269.6881 15.08835952 80256,6917.893,95.438,540.772,538.744,0.0
52271.0,STARLINK-3788,PAYLOAD,2023-10-03 20:58:48,15.0883928,0.0001475,53.2146,134.6799,92.047,268.0691,0.00032749,4.928e-05,0.0,0 STARLINK-3788,1 52271U 22041L   23276.87416893  .00004928  00000-0  32749-3 0  9993,2 52271  53.2146 134.6799 0001475  92.0470 268.0691 15.08839280 80338,6917.883,95.438,540.768,538.727,0.0
52271.0,STARLINK-3788,PAYLOAD,2023-10-03 22:34:11,15.08845003,0.0001479,53.2149,134.3828,91.3036,268.8126,0.00029391,4.393e-05,0.0,0 STARLINK-3788,1 52271U 22041L   23276.94040684  .00004393  00000-0  29391-3 0  9997,2 52271  53.2149 134.3828 0001479  91.3036 268.8126 15.08845003 81562,6917.865,95.437,540.753,538.707,0.0
52271.0,STARLINK-3788,PAYLOAD,2023-10-04 08:06:30,15.08842429,0.0001453,53.2143,132.5983,94.1207,265.9951,0.00030586,4.583e-05,0.0,0 STARLINK-3788,1 52271U 22041L   23277.33784891  .00004583  00000-0  30586-3 0  9995,2 52271  53.2143 132.5983 0001453  94.1207 265.9951 15.08842429 80406,6917.873,95.437,540.743,538.733,0.0
52271.0,STARLINK-3788,PAYLOAD,2023-10-04 19:14:11,15.08847131,0.0001413,53.2149,130.5173,83.4156,276.6997,0.00031928,4.798e-05,0.0,0 STARLINK-3788,1 52271U 22041L   23277.80152768  .00004798  00000-0  31928-3 0  9998,2 52271  53.2149 130.5173 0001413  83.4156 276.6997 15.08847131 81697,6917.859,95.437,540.701,538.746,0.0
52271.0,STARLINK-3788,PAYLOAD,2023-10-04 20:49:34,15.08850602,0.0001356,53.2151,130.2193,89.1012,271.0135,0.00030874,4.63e-05,0.0,0 STARLINK-3788,1 52271U 22041L   23277.86776492  .00004630  00000-0  30874-3 0  9994,2 52271  53.2151 130.2193 0001356  89.1012 271.0135 15.08850602 80485,6917.848,95.437,540.651,538.775,0.0
52271.0,STARLINK-3788,PAYLOAD,2023-10-05 00:00:21,15.08853555,0.0001397,53.2152,129.6239,89.6902,270.4251,0.00035076,5.301e-05,0.0,0 STARLINK-3788,1 52271U 22041L   23278.00024315  .00005301  00000-0  35076-3 0  9996,2 52271  53.2152 129.6239 0001397  89.6902 270.4251 15.08853555 80502,6917.839,95.437,540.67,538.738,0.0
52271.0,STARLINK-3788,PAYLOAD,2023-10-05 20:40:22,15.08845424,0.0001333,53.2155,125.758,98.8415,261.2728,0.00020084,2.91e-05,0.0,0 STARLINK-3788,1 52271U 22041L   23278.86136655  .00002910  00000-0  20084-3 0  9997,2 52271  53.2155 125.7580 0001333  98.8415 261.2728 15.08845424 81854,6917.864,95.437,540.651,538.807,0.0
52271.0,STARLINK-3788,PAYLOAD,2023-10-05 23:51:08,15.08846475,0.000133,53.2153,125.1639,84.8305,275.2839,0.00020603,2.993e-05,0.0,0 STARLINK-3788,1 52271U 22041L   23278.99384537  .00002993  00000-0  20603-3 0  9993,2 52271  53.2153 125.1639 0001330  84.8305 275.2839 15.08846475 80653,6917.861,95.437,540.646,538.806,0.0
52271.0,STARLINK-3788,PAYLOAD,2023-10-06 18:55:46,15.08833049,0.0001425,53.2161,121.5927,97.903,262.2124,-1.2116e-05,-4.81e-06,0.0,0 STARLINK-3788,1 52271U 22041L   23279.78873349 -.00000481  00000-0 -12116-4 0  9998,2 52271  53.2161 121.5927 0001425  97.9030 262.2124 15.08833049 81991,6917.902,95.438,540.752,538.781,0.0
52271.0,STARLINK-3788,PAYLOAD,2023-10-06 20:31:09,15.08838932,0.0001334,53.2155,121.2993,86.8423,273.2722,-2.7606e-05,-7.27e-06,0.0,0 STARLINK-3788,1 52271U 22041L   23279.85497109 -.00000727  00000-0 -27606-4 0  9995,2 52271  53.2155 121.2993 0001334  86.8423 273.2722 15.08838932 80784,6917.884,95.438,540.671,538.826,0.0
52271.0,STARLINK-3788,PAYLOAD,2023-10-06 22:06:32,15.08838621,0.0001322,53.2154,121.0009,84.8898,275.2245,-1.0497e-05,-4.55e-06,0.0,0 STARLINK-3788,1 52271U 22041L   23279.92121144 -.00000455  00000-0 -10497-4 0  9994,2 52271  53.2154 121.0009 0001322  84.8898 275.2245 15.08838621 80798,6917.885,95.438,540.664,538.835,0.0
52271.0,STARLINK-3788,PAYLOAD,2023-10-07 18:46:33,15.0884535,0.0001298,53.2157,117.1352,86.4124,273.7017,0.00025225,3.73e-05,0.0,0 STARLINK-3788,1 52271U 22041L   23280.78233181  .00003730  00000-0  25225-3 0  9996,2 52271  53.2157 117.1352 0001298  86.4124 273.7017 15.08845350 82148,6917.864,95.437,540.627,538.831,0.0
52271.0,STARLINK-3788,PAYLOAD,2023-10-07 21:57:19,15.08852156,0.000131,53.2156,116.5407,86.1426,273.9716,0.00038857,5.904e-05,0.0,0 STARLINK-3788,1 52271U 22041L   23280.91480957  .00005904  00000-0  38857-3 0  9996,2 52271  53.2156 116.5407 0001310  86.1426 273.9716 15.08852156 80944,6917.843,95.437,540.614,538.802,0.0
52271.0,STARLINK-3788,PAYLOAD,2023-10-08 13:51:11,15.08838994,0.0001384,53.2158,113.5685,89.7048,270.4103,7.2136e-05,8.6e-06,0.0,0 STARLINK-3788,1 52271U 22041L   23281.57721436  .00000860  00000-0  72136-4 0  9994,2 52271  53.2158 113.5685 0001384  89.7048 270.4103 15.08838994 81049,6917.883,95.438,540.706,538.791,0.0
52271.0,STARLINK-3788,PAYLOAD,2023-10-08 18:37:20,15.0884292,0.0001564,53.2158,112.6752,88.3728,271.7443,0.00011365,1.521e-05,0.0,0 STARLINK-3788,1 52271U 22041L   23281.77593275  .00001521  00000-0  11365-3 0  9995,2 52271  53.2158 112.6752 0001564  88.3728 271.7443 15.08842920 82297,6917.871,95.437,540.818,538.655,0.0
52271.0,STARLINK-3788,PAYLOAD,2023-10-08 20:12:43,15.08845603,0.0001407,53.2156,112.3794,93.1551,266.9602,0.00017962,2.572e-05,0.0,0 STARLINK-3788,1 52271U 22041L   23281.84217156  .00002572  00000-0  17962-3 0  9990,2 52271  53.2156 112.3794 0001407  93.1551 266.9602 15.08845603 81082,6917.863,95.437,540.702,538.755,0.0
52271.0,STARLINK-3788,PAYLOAD,2023-10-09 05:45:02,15.08842989,0.0001514,53.2156,110.5941,89.6377,270.4789,9.4962e-05,1.224e-05,0.0,0 STARLINK-3788,1 52271U 22041L   23282.23961237  .00001224  00000-0  94962-4 0  9999,2 52271  53.2156 110.5941 0001514  89.6377 270.4789 15.08842989 81148,6917.871,95.437,540.784,538.689,0.0
52271.0,STARLINK-3788,PAYLOAD,2023-10-09 21:38:53,15.0884645,0.0001576,53.2164,107.6187,91.3743,268.743,0.00015692,2.211e-05,0.0,0 STARLINK-3788,1 52271U 22041L   23282.90201090  .00002211  00000-0  15692-3 0  9996,2 52271  53.2164 107.6187 0001576  91.3743 268.7430 15.08846450 81242,6917.861,95.437,540.816,538.635,0.0
